format  = 'OEF1.1'       ! file format
rectype = '1L'           ! record type (1L/ML)
elem    = 'KEP'          ! type of orbital elements
refsys  = ECLM J2000     ! default reference system
END_OF_HEADER
! Name, Epoch(MJD), a, e, i, long. node, arg. peric., mean anomaly
'8014'         50000.000000   1.7468368966967791E+00   4.5564004130600635E-01   1.8593931180406368E+00   2.1068564675131981E+02   1.1378733521087099E+02   8.5795757858996566E+01
'8014'         50020.000000   1.7468377253175163E+00   4.5564711617630271E-01   1.8593897572320124E+00   2.1068535577601281E+02   1.1378763034776993E+02   9.4332811902804423E+01
'8014'         50040.000000   1.7468377577876907E+00   4.5565484189010244E-01   1.8593846121160453E+00   2.1068472556322911E+02   1.1378833798425332E+02   1.0286968870806903E+02
'8014'         50060.000000   1.7468379948992137E+00   4.5566185777078232E-01   1.8593792787225102E+00   2.1068374279674512E+02   1.1378953505238489E+02   1.1140644289867711E+02
'8014'         50080.000000   1.7468378837317782E+00   4.5566774123403118E-01   1.8593759026673926E+00   2.1068256815331972E+02   1.1379097982440598E+02   1.1994325112125753E+02
'8014'         50100.000000   1.7468362692395361E+00   4.5567246957008409E-01   1.8593753429120374E+00   2.1068164553152451E+02   1.1379207104656869E+02   1.2848042630988584E+02
'8014'         50120.000000   1.7468301735025456E+00   4.5567889503398868E-01   1.8593764739925959E+00   2.1068103472844317E+02   1.1379260250081163E+02   1.3701806133730784E+02
'8014'         50140.000000   1.7468212231517657E+00   4.5568705069704931E-01   1.8593789422222821E+00   2.1068042538783678E+02   1.1379305444290816E+02   1.4555589475784879E+02
'8014'         50160.000000   1.7468093756162117E+00   4.5569727875043062E-01   1.8593824269964060E+00   2.1067986919810829E+02   1.1379342199172397E+02   1.5409388786310257E+02
'8014'         50180.000000   1.7467953352987157E+00   4.5570926722817306E-01   1.8593863651641971E+00   2.1067939854332639E+02   1.1379375719235411E+02   1.6263194661175461E+02
'8014'         50200.000000   1.7467775466630759E+00   4.5572424450976969E-01   1.8593884368683247E+00   2.1067920749151025E+02   1.1379386485953671E+02   1.7117012354802492E+02
'8014'         50220.000000   1.7467563419856429E+00   4.5574209133532015E-01   1.8593961322696167E+00   2.1067862394901820E+02   1.1379466390034861E+02   1.7970795319257815E+02
'8014'         50240.000000   1.7467339475120751E+00   4.5576040740225405E-01   1.8594116074097681E+00   2.1067762801942928E+02   1.1379624046020642E+02   1.8824537270953937E+02
'8014'         50260.000000   1.7467119200325052E+00   4.5577732032992175E-01   1.8594352917813065E+00   2.1067631781320935E+02   1.1379846068389104E+02   1.9678245191861046E+02
'8014'         50280.000000   1.7466918618096312E+00   4.5579145897528059E-01   1.8594595987745404E+00   2.1067514755800357E+02   1.1380067637172694E+02   2.0531955953444555E+02
'8014'         50300.000000   1.7466716941843288E+00   4.5580444992318618E-01   1.8594875493078478E+00   2.1067398155878863E+02   1.1380300943802683E+02   2.1385674087356438E+02
'8014'         50320.000000   1.7466529515243414E+00   4.5581501759339016E-01   1.8595199955062103E+00   2.1067279711012335E+02   1.1380541458526204E+02   2.2239403664583986E+02
'8014'         50340.000000   1.7466364544532844E+00   4.5582309636144700E-01   1.8595519621502168E+00   2.1067177816582807E+02   1.1380757580157476E+02   2.3093165757828086E+02
'8014'         50360.000000   1.7466235229548690E+00   4.5582874207233743E-01   1.8595755117132873E+00   2.1067112144157005E+02   1.1380914458686816E+02   2.3946982797590152E+02
'8014'         50380.000000   1.7466127818035053E+00   4.5583455527093193E-01   1.8595858769987633E+00   2.1067087445463022E+02   1.1381007639243309E+02   2.4800870802464220E+02
'8014'         50400.000000   1.7466017348960765E+00   4.5584150479644157E-01   1.8595968283204577E+00   2.1067065431242742E+02   1.1381099534922841E+02   2.5654790844239682E+02
'8014'         50420.000000   1.7465908024695365E+00   4.5584915498813237E-01   1.8596096301702909E+00   2.1067044219052102E+02   1.1381194594580141E+02   2.6508734792040769E+02
'8014'         50440.000000   1.7465803757048210E+00   4.5585678663741360E-01   1.8596247599553575E+00   2.1067024215065589E+02   1.1381292949860416E+02   2.7362693035921950E+02
'8014'         50460.000000   1.7465728180030458E+00   4.5586403343283362E-01   1.8596332656093821E+00   2.1067015817434066E+02   1.1381369562695031E+02   2.8216680720162697E+02
'8014'         50480.000000   1.7465651635928536E+00   4.5587155829855295E-01   1.8596477027364058E+00   2.1067007189906161E+02   1.1381459488560472E+02   2.9070670890449287E+02
'8014'         50500.000000   1.7465583892839158E+00   4.5587814589438320E-01   1.8596674793422675E+00   2.1067002711720278E+02   1.1381547838308995E+02   2.9924661275593417E+02
'8014'         50520.000000   1.7465545830367494E+00   4.5588346456939632E-01   1.8596871030285415E+00   2.1067006559785179E+02   1.1381612999940972E+02   3.0778663229323649E+02
'8014'         50540.000000   1.7465579551112597E+00   4.5588782904566445E-01   1.8596958901924607E+00   2.1067011982524883E+02   1.1381633110795629E+02   3.1632696162003759E+02
'8014'         50560.000000   1.7465714730180569E+00   4.5589327277961438E-01   1.8596930353216548E+00   2.1067007668241669E+02   1.1381619297825262E+02   3.2486762548120322E+02
'8014'         50580.000000   1.7465880214286926E+00   4.5589898035398022E-01   1.8596832880169005E+00   2.1066983282904113E+02   1.1381619385475852E+02   3.3340812373772542E+02
'8014'         50600.000000   1.7465972452297041E+00   4.5590190220309372E-01   1.8596674337807077E+00   2.1066913102967723E+02   1.1381675350143428E+02   3.4194815920663189E+02
'8014'         50620.000000   1.7465907196948615E+00   4.5589910700016736E-01   1.8596573306369834E+00   2.1066797452274182E+02   1.1381758381505118E+02   3.5048793766315646E+02
'8014'         50640.000000   1.7465730755602755E+00   4.5589293870123173E-01   1.8596631001504297E+00   2.1066670369278154E+02   1.1381806535427975E+02   3.5902796356637913E+02
'8014'         50660.000000   1.7465448761358598E+00   4.5588455523914675E-01   1.8596802809032011E+00   2.1066588503206063E+02   1.1381799054322858E+02   7.5683747232593763E+00
'8014'         50680.000000   1.7465135309482718E+00   4.5587571159155615E-01   1.8596972138897685E+00   2.1066554401204212E+02   1.1381755367728108E+02   1.6109225941779421E+01
'8014'         50700.000000   1.7464898062866707E+00   4.5586848150566839E-01   1.8597055077852589E+00   2.1066548486538309E+02   1.1381721549364578E+02   2.4650280372814983E+01
'8014'         50720.000000   1.7464743377661662E+00   4.5586227953122744E-01   1.8597082097951446E+00   2.1066549268052691E+02   1.1381719078463982E+02   3.3191379556072818E+01
'8014'         50740.000000   1.7464698656938560E+00   4.5585729611077834E-01   1.8597023138399392E+00   2.1066541662288483E+02   1.1381770764613066E+02   4.1732234918857181E+01
'8014'         50760.000000   1.7464726531212238E+00   4.5585166380890980E-01   1.8596878678180872E+00   2.1066513179449561E+02   1.1381884236904980E+02   5.0272846266774771E+01
'8014'         50780.000000   1.7464794429108499E+00   4.5584442687865634E-01   1.8596698521061533E+00   2.1066463104089917E+02   1.1382042945369656E+02   5.8813324871205779E+01
'8014'         50800.000000   1.7464882838642984E+00   4.5583542206706147E-01   1.8596549313270463E+00   2.1066408548605867E+02   1.1382213782304520E+02   6.7353775241337686E+01
'8014'         50820.000000   1.7464970701280158E+00   4.5582678397700729E-01   1.8596468809587259E+00   2.1066369681280017E+02   1.1382349757687662E+02   7.5894210183755447E+01
'8014'         50840.000000   1.7465082594701469E+00   4.5581947299679353E-01   1.8596392015586588E+00   2.1066321448107561E+02   1.1382493065887378E+02   8.4434283437664831E+01
'8014'         50860.000000   1.7465206754954936E+00   4.5581349005608258E-01   1.8596321123837626E+00   2.1066262438476178E+02   1.1382644883257589E+02   9.2973978036651545E+01
'8014'         50880.000000   1.7465346082380870E+00   4.5580822747758845E-01   1.8596253589288159E+00   2.1066185313162475E+02   1.1382821427013833E+02   1.0151321727833424E+02
'8014'         50900.000000   1.7465480985780941E+00   4.5580369619516512E-01   1.8596210979579052E+00   2.1066112681767868E+02   1.1382990781023919E+02   1.1005215550937227E+02
'8014'         50920.000000   1.7465626180202676E+00   4.5579993177800695E-01   1.8596173453824123E+00   2.1065993774743816E+02   1.1383220891141596E+02   1.1859046963934070E+02
'8014'         50940.000000   1.7465798380604667E+00   4.5579485353042912E-01   1.8596160433364869E+00   2.1065823620651403E+02   1.1383527645162023E+02   1.2712812215668670E+02
'8014'         50960.000000   1.7465996916932451E+00   4.5578729928688348E-01   1.8596191879430091E+00   2.1065617826790213E+02   1.1383889518124943E+02   1.3566525146321612E+02
'8014'         50980.000000   1.7466213903158685E+00   4.5577652858525983E-01   1.8596263292864935E+00   2.1065424671317777E+02   1.1384240213479740E+02   1.4420221105526579E+02
'8014'         51000.000000   1.7466415729185469E+00   4.5576497741848065E-01   1.8596365966410286E+00   2.1065252635463321E+02   1.1384552528707837E+02   1.5273919866325599E+02
'8014'         51020.000000   1.7466612370274513E+00   4.5575227624378218E-01   1.8596506762924394E+00   2.1065079836010267E+02   1.1384853673936671E+02   1.6127612019790769E+02
'8014'         51040.000000   1.7466799215111159E+00   4.5573881738991044E-01   1.8596669570684361E+00   2.1064922905114395E+02   1.1385120641142612E+02   1.6981310678673060E+02
'8014'         51060.000000   1.7466976321197398E+00   4.5572482981854536E-01   1.8596831677702259E+00   2.1064794469764701E+02   1.1385337801145054E+02   1.7835023075240946E+02
